STARLINK-34531          
1 64750U 25144AC  25201.58335648 -.01563170  00000+0 -17555-1 0  9998
2 64750  53.1591 182.2914 0001089  73.7448 197.1640 15.65010007  4160
PROGRESS-MS 31          
1 64751U 25146A   25201.26732422  .00007301  00000+0  13592-3 0  9992
2 64751  51.6337 143.1027 0002198  97.0892 263.0347 15.49967702  2099
SHIYAN-28B 01           
1 64753U 25145A   25201.62744463  .00000586  00000+0  59993-4 0  9995
2 64753  11.0002 327.1048 0003409 262.4283  97.5558 14.29199226  2409
CZ-4C R/B               
1 64754U 25145B   25201.57955477  .00000978  00000+0  85136-4 0  9992
2 64754  10.9868 322.3184 0122268 224.3226 134.7155 14.56356941  2399
STARLINK-33965          
1 64755U 25147A   25201.58335648 -.00042100  00000+0 -28442-3 0  9999
2 64755  53.1626 246.9590 0000612  89.9916 131.4687 15.74203930  3195
STARLINK-34371          
1 64756U 25147B   25201.58335648 -.00078374  00000+0 -53442-3 0  9990
2 64756  53.1590 246.9554 0000565  50.7788 172.5660 15.74250060  3076
STARLINK-34401          
1 64757U 25147C   25201.58335648  .00028657  00000+0  19957-3 0  9991
2 64757  53.1591 246.9511 0000936  82.9776 142.3512 15.74156780  3049
STARLINK-34593          
1 64758U 25147D   25201.60679155  .00112094  00000+0  75889-3 0  9994
2 64758  53.1582 246.8289 0001181  87.5943 272.5212 15.74208138  3139
STARLINK-34598          
1 64759U 25147E   25201.60645315  .00078086  00000+0  53234-3 0  9998
2 64759  53.1586 246.8270 0001235  81.4037 278.7122 15.74197145  3088
STARLINK-34235          
1 64760U 25147F   25201.54262427  .00061938  00000+0  42402-3 0  9995
2 64760  53.1584 247.1394 0000809  88.4686 271.6427 15.74193311  3162
STARLINK-34635          
1 64761U 25147G   25201.60577321  .00064034  00000+0  43802-3 0  9990
2 64761  53.1582 246.8219 0001021  85.2330 274.8807 15.74198358  3131
STARLINK-34638          
1 64762U 25147H   25201.60543667  .00076952  00000+0  52463-3 0  9992
2 64762  53.1583 246.8197 0001054  94.2983 265.8157 15.74202287  3133
STARLINK-34534          
1 64763U 25147J   25201.60509729  .00084196  00000+0  57287-3 0  9992
2 64763  53.1585 246.8172 0001051  90.1379 269.9761 15.74212223  3137
STARLINK-34261          
1 64764U 25147K   25201.58335648 -.00062890  00000+0 -42837-3 0  9991
2 64764  53.1589 246.9227 0001128  68.6874 170.0571 15.74185789  3192
STARLINK-34566          
1 64765U 25147L   25201.58335648  .00008068  00000+0  59393-4 0  9993
2 64765  53.1589 246.9190 0001073  83.3952 157.2737 15.74163796  3153
STARLINK-34645          
1 64766U 25147M   25201.58335648  .00016887  00000+0  11953-3 0  9991
2 64766  53.1590 246.9146 0000992  84.3297 158.2583 15.74156517  3152
STARLINK-34639          
1 64767U 25147N   25201.54026009  .00056640  00000+0  38837-3 0  9997
2 64767  53.1583 247.1230 0001196  81.3091 278.8064 15.74192344  3070
STARLINK-34609          
1 64768U 25147P   25201.58335648  .00060893  00000+0  41837-3 0  9993
2 64768  53.1587 246.9073 0001454  75.2011 171.1751 15.74116038  3151
STARLINK-34246          
1 64769U 25147Q   25201.58335648  .00043051  00000+0  29718-3 0  9995
2 64769  53.1589 246.9033 0001083  73.8697 174.4543 15.74154670  3151
STARLINK-34618          
1 64770U 25147R   25201.58335648  .00012331  00000+0  88434-4 0  9995
2 64770  53.1588 246.8990 0000848  74.5628 175.6763 15.74170703  3043
STARLINK-34541          
1 64771U 25147S   25201.53890635  .00056283  00000+0  38597-3 0  9991
2 64771  53.1581 247.1135 0000898  84.4892 275.6230 15.74192210  3058
STARLINK-34652          
1 64772U 25147T   25201.60205874  .00101922  00000+0  69141-3 0  9995
2 64772  53.1583 246.7962 0001275  79.1086 281.0077 15.74202688  3130
STARLINK-34612          
1 64773U 25147U   25201.58335648  .00005703  00000+0  43246-4 0  9995
2 64773  53.1588 246.8864 0001069  72.4101 183.5927 15.74166684  3150
STARLINK-34621          
1 64774U 25147V   25201.58335648  .00010998  00000+0  79324-4 0  9994
2 64774  53.1588 246.8824 0001339  56.7871 201.1087 15.74179186  3049
STARLINK-34657          
1 64775U 25147W   25201.58335648  .00051453  00000+0  35411-3 0  9994
2 64775  53.1585 246.8783 0000896  75.6418 184.1927 15.74146909  3157
STARLINK-34637          
1 64776U 25147X   25201.58335648  .00049663  00000+0  34196-3 0  9994
2 64776  53.1586 246.8742 0001002  82.7981 178.9488 15.74150189  3044
STARLINK-34547          
1 64777U 25147Y   25201.58335648  .00039236  00000+0  27130-3 0  9990
2 64777  53.1587 246.8706 0000969  87.8776 175.7834 15.74158603  3077
STARLINK-34537          
1 64778U 25147Z   25201.57977738  .00150706  00000+0  90491-3 0  9998
2 64778  53.1560 246.6455 0000913  61.8417 298.2696 15.76819795  3177
STARLINK-34585          
1 64779U 25147AA  25201.58335648  .00027721  00000+0  19320-3 0  9990
2 64779  53.1584 246.8623 0000977  76.3871 191.1088 15.74158318  3102
STARLINK-34491          
1 64780U 25147AB  25201.58335648  .00046153  00000+0  31828-3 0  9999
2 64780  53.1585 246.8587 0001060  68.6010 200.8207 15.74146475  3154
STARLINK-34582          
1 64781U 25147AC  25201.58335648  .00030623  00000+0  21300-3 0  9999
2 64781  53.1585 246.8544 0001051  92.1624 179.1818 15.74147568  3049
STARLINK-34482          
1 64782U 25147AD  25201.53518921  .00097513  00000+0  66186-3 0  9994
2 64782  53.1579 247.0876 0001242  78.6560 281.4599 15.74208569  3169
CZ-4C DEB               
1 64783U 25145C   25201.56659810  .00068804  00000+0  28688-1 0  9993
2 64783  10.9721 328.5673 0036531   9.0199 351.0681 14.24212249  1668
DROR 1                  
1 64784U 25148A   25197.13967436  .00000034  00000+0  18632-3 0  9991
2 64784  23.8557 198.9333 8224026 181.0806 173.7716  1.19604520    50
TIANZHOU-9              
1 64786U 25149A   25200.77019891  .00007094  00000+0  12748-2 0  9996
2 64786  98.7691 214.2180 0025229 255.6515 104.1886 14.66794290241025
CZ-7 R/B                
1 64787U 25149B   25200.32266932  .00848252  74809-5  57242-3 0  9990
2 64787  41.4691 183.8981 0090480 206.2842 295.0938 16.06973910   718
CZ-7 DEB                
1 64788U 25149C   25199.02818894  .07069983  72772-5  27876-2 0  9994
2 64788  41.6244 192.8415 0115111 203.3467 156.2138 16.08501629   498
2025-135BT              
1 64840U 25135BT  25198.46759382  .00001622  00000+0  16377-3 0  9994
2 64840  97.7473 312.4875 0006045  26.3833 333.7693 14.92433292  3951
2025-135BU              
1 64841U 25135BU  25198.27366605  .00005725  00000+0  56186-3 0  9996
2 64841  97.7494 312.2800 0007049 255.7689 104.2747 14.92563389  3922
